ONEWEB-0068             
1 45446U 20020Y   26204.16541859  .00000307  00000+0  82994-3 0  9994
2 45446  87.8896  13.9018 0001665  96.0168 264.1150 13.11414010307310
ONEWEB-0046             
1 45447U 20020Z   26204.00448081  .00000543  00000+0  14952-2 0  9991
2 45447  87.8888  13.9372 0001571  88.4446 271.6862 13.11417396307307
ONEWEB-0063             
1 45448U 20020AA  26204.03344293 -.00000642  00000+0 -18487-2 0  9994
2 45448  87.8887  13.9344 0001888  81.3838 278.7504 13.11415956307394
ONEWEB-0019             
1 45449U 20020AB  26203.99587961  .00000521  00000+0  14342-2 0  9990
2 45449  87.8892  13.9254 0001999  94.4938 265.6419 13.11418061307233
ONEWEB-0094             
1 45450U 20020AC  26203.66514314  .00000017  00000+0  98433-5 0  9994
2 45450  87.9163 358.7948 0001851 102.8227 257.3111 13.17649678310988
ONEWEB-0087             
1 45451U 20020AD  26203.89074173 -.00000480  00000+0 -13891-2 0  9992
2 45451  87.8907  13.9387 0001601  99.9578 260.1731 13.11417681307267
ONEWEB-0082             
1 45452U 20020AE  26204.19253509 -.00000512  00000+0 -14804-2 0  9990
2 45452  87.8899  13.8921 0001384  96.9429 263.1857 13.11417929307392
ONEWEB-0050             
1 45453U 20020AF  26204.12935073  .00001508  00000+0  15242-3 0  9999
2 45453  88.9276 228.3274 0003477 153.7656 206.3750 14.90489476345732
ONEWEB-0034             
1 45454U 20020AG  26204.00126171  .00000545  00000+0  15029-2 0  9990
2 45454  87.8900  13.9398 0001789  91.3471 268.7862 13.11418060307283
ONEWEB-0060             
1 45455U 20020AH  26204.18505253 -.00000368  00000+0 -10729-2 0  9999
2 45455  87.8896  13.8981 0001557 126.1280 233.9992 13.11415684307268
ONEWEB-0086             
1 45456U 20020AJ  26204.16372334  .00000433  00000+0  11867-2 0  9995
2 45456  87.8898  13.9008 0002091 113.4984 246.6364 13.11416682307326
ONEWEB-0088             
1 45457U 20020AK  26203.98922177  .00000328  00000+0  88963-3 0  9996
2 45457  87.8908  13.9107 0001557  80.6784 279.4520 13.11418682307238
ONEWEB-0102             
1 47258U 20100A   26203.81295411 -.00000305  00000+0 -88261-3 0  9990
2 47258  87.8972 343.5912 0002065 101.8257 258.3103 13.12444169269401
ONEWEB-0109             
1 47259U 20100B   26203.82142535  .00000008  00000+0 -11897-4 0  9991
2 47259  87.8981 343.5763 0001989  96.1329 264.0027 13.12445094269234
ONEWEB-0110             
1 47260U 20100C   26204.15349412  .00000400  00000+0  10764-2 0  9998
2 47260  87.8981 343.4945 0001920 108.1574 251.9764 13.12442895269440
ONEWEB-0111             
1 47261U 20100D   26203.80278873 -.00000383  00000+0 -10989-2 0  9993
2 47261  87.8981 343.5828 0001780  99.9357 260.1972 13.12443445269234
ONEWEB-0114             
1 47262U 20100E   26203.29963304  .00000506  00000+0  13711-2 0  9998
2 47262  87.8985 343.6812 0002025  94.0755 266.0605 13.12443421269124
ONEWEB-0117             
1 47263U 20100F   26203.82482119  .00000161  00000+0  41258-3 0  9993
2 47263  87.8977 343.5664 0001890  97.7787 262.3557 13.12443534269203
ONEWEB-0118             
1 47264U 20100G   26204.31613199  .00000179  00000+0  46112-3 0  9996
2 47264  87.8982 343.4714 0001816  88.3894 271.7442 13.12441216269468
ONEWEB-0119             
1 47265U 20100H   26203.80787669 -.00000387  00000+0 -11112-2 0  9998
2 47265  87.8972 343.5860 0001851  96.9681 263.1659 13.12442892269375
ONEWEB-0120             
1 47266U 20100J   26203.83174140  .00000316  00000+0  84410-3 0  9998
2 47266  87.8970 343.5829 0002042  95.2740 264.8622 13.12442602269401
ONEWEB-0121             
1 47267U 20100K   26203.81973473  .00000018  00000+0  15344-4 0  9993
2 47267  87.8982 343.5744 0001587 102.8401 257.2905 13.12444063269316
ONEWEB-0122             
1 47268U 20100L   26203.81380862 -.00000182  00000+0 -54173-3 0  9994
2 47268  87.8982 343.5807 0002035  98.8231 261.3128 13.12442782269220
ONEWEB-0123             
1 47269U 20100M   26203.35214244 -.00000231  00000+0 -67791-3 0  9999
2 47269  87.8973 343.6752 0001825  94.2242 265.9096 13.12443970269302
ONEWEB-0124             
1 47270U 20100N   26204.33306036 -.00000349  00000+0 -10057-2 0  9993
2 47270  87.8972 343.4832 0001746  99.0998 261.0328 13.12442471269314
ONEWEB-0125             
1 47271U 20100P   26204.31104090  .00000431  00000+0  11630-2 0  9996
2 47271  87.8990 343.4764 0001505  84.8138 275.3163 13.12442050269374
ONEWEB-0126             
1 47272U 20100Q   26204.33151763 -.00000305  00000+0 -88313-3 0  9993
2 47272  87.8975 343.4843 0001956  94.6576 265.4776 13.12442363269446
ONEWEB-0127             
1 47273U 20100R   26203.84006804  .00000464  00000+0  12540-2 0  9996
2 47273  87.8972 343.5800 0001983  94.4259 265.7096 13.12443298269406
ONEWEB-0128             
1 47274U 20100S   26204.31951055 -.00000019  00000+0 -88807-4 0  9996
2 47274  87.8966 343.4971 0001903 105.1257 255.0083 13.12442468269482
ONEWEB-0129             
1 47275U 20100T   26203.84176875  .00000419  00000+0  11300-2 0  9997
2 47275  87.8981 343.5699 0002851  85.5355 274.6099 13.12442255269355
