OBJECT_NAME,OBJECT_ID,EPOCH,MEAN_MOTION,ECCENTRICITY,INCLINATION,RA_OF_ASC_NODE,ARG_OF_PERICENTER,MEAN_ANOMALY,EPHEMERIS_TYPE,CLASSIFICATION_TYPE,NORAD_CAT_ID,ELEMENT_SET_NO,REV_AT_EPOCH,BSTAR,MEAN_MOTION_DOT,MEAN_MOTION_DDOT
ONEWEB-0068,2020-020Y,2026-07-23T03:58:12.166176,13.11414010,.00016658,87.8896,13.9018,96.0168,264.1150,0,U,45446,999,30731,.82993807E-3,.307E-5,0
ONEWEB-0046,2020-020Z,2026-07-23T00:06:27.141984,13.11417396,.00015712,87.8888,13.9372,88.4446,271.6862,0,U,45447,999,30730,.14951669E-2,.543E-5,0
ONEWEB-0063,2020-020AA,2026-07-23T00:48:09.469152,13.11415956,.00018889,87.8887,13.9344,81.3838,278.7504,0,U,45448,999,30739,-.18486788E-2,-.642E-5,0
ONEWEB-0019,2020-020AB,2026-07-22T23:54:03.998304,13.11418061,.00019992,87.8892,13.9254,94.4938,265.6419,0,U,45449,999,30723,.14341568E-2,.521E-5,0
ONEWEB-0094,2020-020AC,2026-07-22T15:57:48.367296,13.17649678,.00018514,87.9163,358.7948,102.8227,257.3111,0,U,45450,999,31098,.984329E-5,.17E-6,0
ONEWEB-0087,2020-020AD,2026-07-22T21:22:40.085472,13.11417681,.00016016,87.8907,13.9387,99.9578,260.1731,0,U,45451,999,30726,-.13890582E-2,-.48E-5,0
ONEWEB-0082,2020-020AE,2026-07-23T04:37:15.031776,13.11417929,.0001384,87.8899,13.8921,96.9429,263.1857,0,U,45452,999,30739,-.14804008E-2,-.512E-5,0
ONEWEB-0050,2020-020AF,2026-07-23T03:06:15.903072,14.90489476,.0003477,88.9276,228.3274,153.7656,206.3750,0,U,45453,999,34573,.15242411E-3,.1508E-4,0
ONEWEB-0034,2020-020AG,2026-07-23T00:01:49.011744,13.11418060,.00017898,87.8900,13.9398,91.3471,268.7862,0,U,45454,999,30728,.15029033E-2,.545E-5,0
ONEWEB-0060,2020-020AH,2026-07-23T04:26:28.538592,13.11415684,.00015574,87.8896,13.8981,126.1280,233.9992,0,U,45455,999,30726,-.10728773E-2,-.368E-5,0
ONEWEB-0086,2020-020AJ,2026-07-23T03:55:45.696576,13.11416682,.00020919,87.8898,13.9008,113.4984,246.6364,0,U,45456,999,30732,.11867354E-2,.433E-5,0
ONEWEB-0088,2020-020AK,2026-07-22T23:44:28.760928,13.11418682,.00015577,87.8908,13.9107,80.6784,279.4520,0,U,45457,999,30723,.88962937E-3,.328E-5,0
ONEWEB-0102,2020-100A,2026-07-22T19:30:39.235104,13.12444169,.00020651,87.8972,343.5912,101.8257,258.3103,0,U,47258,999,26940,-.8826074E-3,-.305E-5,0
ONEWEB-0109,2020-100B,2026-07-22T19:42:51.150240,13.12445094,.00019895,87.8981,343.5763,96.1329,264.0027,0,U,47259,999,26923,-.11896812E-4,.8E-7,0
ONEWEB-0110,2020-100C,2026-07-23T03:41:01.891968,13.12442895,.00019201,87.8981,343.4945,108.1574,251.9764,0,U,47260,999,26944,.10763571E-2,.4E-5,0
ONEWEB-0111,2020-100D,2026-07-22T19:16:00.946272,13.12443445,.00017805,87.8981,343.5828,99.9357,260.1972,0,U,47261,999,26923,-.10988834E-2,-.383E-5,0
ONEWEB-0114,2020-100E,2026-07-22T07:11:28.294656,13.12443421,.00020257,87.8985,343.6812,94.0755,266.0605,0,U,47262,999,26912,.13711193E-2,.506E-5,0
ONEWEB-0117,2020-100F,2026-07-22T19:47:44.550816,13.12443534,.00018903,87.8977,343.5664,97.7787,262.3557,0,U,47263,999,26920,.41257984E-3,.161E-5,0
ONEWEB-0118,2020-100G,2026-07-23T07:35:13.803936,13.12441216,.00018166,87.8982,343.4714,88.3894,271.7442,0,U,47264,999,26946,.46112479E-3,.179E-5,0
ONEWEB-0119,2020-100H,2026-07-22T19:23:20.546016,13.12442892,.00018519,87.8972,343.5860,96.9681,263.1659,0,U,47265,999,26937,-.11112203E-2,-.387E-5,0
ONEWEB-0120,2020-100J,2026-07-22T19:57:42.456960,13.12442602,.00020427,87.8970,343.5829,95.2740,264.8622,0,U,47266,999,26940,.84409705E-3,.316E-5,0
ONEWEB-0121,2020-100K,2026-07-22T19:40:25.080672,13.12444063,.00015873,87.8982,343.5744,102.8401,257.2905,0,U,47267,999,26931,.15344227E-4,.18E-6,0
ONEWEB-0122,2020-100L,2026-07-22T19:31:53.064768,13.12442782,.00020351,87.8982,343.5807,98.8231,261.3128,0,U,47268,999,26922,-.5417257E-3,-.182E-5,0
ONEWEB-0123,2020-100M,2026-07-22T08:27:05.106816,13.12443970,.00018259,87.8973,343.6752,94.2242,265.9096,0,U,47269,999,26930,-.67790767E-3,-.231E-5,0
ONEWEB-0124,2020-100N,2026-07-23T07:59:36.415104,13.12442471,.00017466,87.8972,343.4832,99.0998,261.0328,0,U,47270,999,26931,-.10056591E-2,-.349E-5,0
ONEWEB-0125,2020-100P,2026-07-23T07:27:53.933760,13.12442050,.0001505,87.8990,343.4764,84.8138,275.3163,0,U,47271,999,26937,.11630076E-2,.431E-5,0
ONEWEB-0126,2020-100Q,2026-07-23T07:57:23.123232,13.12442363,.00019566,87.8975,343.4843,94.6576,265.4776,0,U,47272,999,26944,-.88312546E-3,-.305E-5,0
ONEWEB-0127,2020-100R,2026-07-22T20:09:41.878656,13.12443298,.00019838,87.8972,343.5800,94.4259,265.7096,0,U,47273,999,26940,.12539795E-2,.464E-5,0
ONEWEB-0128,2020-100S,2026-07-23T07:40:05.711520,13.12442468,.00019034,87.8966,343.4971,105.1257,255.0083,0,U,47274,999,26948,-.88806794E-4,-.19E-6,0
ONEWEB-0129,2020-100T,2026-07-22T20:12:08.820000,13.12442255,.00028511,87.8981,343.5699,85.5355,274.6099,0,U,47275,999,26935,.11299622E-2,.419E-5,0
